{
  "type": "FeatureCollection",
  "features": [
    {
      "type": "Feature",
      "properties": {
        "norad_id": 44709,
        "name": "BEIDOU-3 IGSO-3 (C40)",
        "group": "beidou",
        "lat": 31.956405558614787,
        "lon": 77.07556768741452,
        "alt_km": 35673.8625971389,
        "timestamp": "2025-12-19T14:48:36.512986+00:00",
        "meta_object_name": "BEIDOU-3 IGSO-3 (C40)",
        "meta_object_id": "2019-073A",
        "meta_epoch": "2025-11-20T07:11:22.740000",
        "meta_mean_motion": 1.00250097,
        "meta_eccentricity": 0.0044538,
        "meta_inclination": 55.163,
        "meta_ra_of_asc_node": 283.159,
        "meta_arg_of_pericenter": 191.5856,
        "meta_mean_anomaly": 168.2409,
        "meta_ephemeris_type": 0,
        "meta_classification_type": "U",
        "meta_norad_cat_id": 44709,
        "meta_element_set_no": 999,
        "meta_rev_at_epoch": 2236,
        "meta_bstar": 0,
        "meta_mean_motion_dot": -2.06e-06,
        "meta_mean_motion_ddot": 0,
        "tle_line1": "1 44709U 19073A   25324.29956875 -.00000206  00000+0  00000+0 0  9998",
        "tle_line2": "2 44709  55.1630 283.1590 0044538 191.5856 168.2409  1.00250097 22360"
      },
      "geometry": {
        "type": "Point",
        "coordinates": [
          77.07556768741452,
          31.956405558614787
        ]
      }
    },
    {
      "type": "Feature",
      "properties": {
        "norad_id": 44793,
        "name": "BEIDOU-3 M22 (C44)",
        "group": "beidou",
        "lat": -53.356263774425976,
        "lon": -130.47827328254485,
        "alt_km": 21538.37273550014,
        "timestamp": "2025-12-19T14:48:36.513002+00:00",
        "meta_object_name": "BEIDOU-3 M22 (C44)",
        "meta_object_id": "2019-078A",
        "meta_epoch": "2025-12-18T03:05:10.380768",
        "meta_mean_motion": 1.86232153,
        "meta_eccentricity": 0.00060099,
        "meta_inclination": 54.1032,
        "meta_ra_of_asc_node": 306.1968,
        "meta_arg_of_pericenter": 24.2925,
        "meta_mean_anomaly": 335.7236,
        "meta_ephemeris_type": 0,
        "meta_classification_type": "U",
        "meta_norad_cat_id": 44793,
        "meta_element_set_no": 999,
        "meta_rev_at_epoch": 4127,
        "meta_bstar": 0,
        "meta_mean_motion_dot": -8.5e-07,
        "meta_mean_motion_ddot": 0,
        "tle_line1": "1 44793U 19078A   25352.12859237 -.00000085  00000+0  00000+0 0  9998",
        "tle_line2": "2 44793  54.1032 306.1968 0006009  24.2925 335.7236  1.86232153 41270"
      },
      "geometry": {
        "type": "Point",
        "coordinates": [
          -130.47827328254485,
          -53.356263774425976
        ]
      }
    },
    {
      "type": "Feature",
      "properties": {
        "norad_id": 44794,
        "name": "BEIDOU-3 M21 (C43)",
        "group": "beidou",
        "lat": -4.550942855937594,
        "lon": 129.38991086117971,
        "alt_km": 21540.62925666611,
        "timestamp": "2025-12-19T14:48:36.513013+00:00",
        "meta_object_name": "BEIDOU-3 M21 (C43)",
        "meta_object_id": "2019-078B",
        "meta_epoch": "2025-12-16T15:43:55.727904",
        "meta_mean_motion": 1.86227668,
        "meta_eccentricity": 0.00041169,
        "meta_inclination": 54.078,
        "meta_ra_of_asc_node": 306.2132,
        "meta_arg_of_pericenter": 11.942,
        "meta_mean_anomaly": 348.0544,
        "meta_ephemeris_type": 0,
        "meta_classification_type": "U",
        "meta_norad_cat_id": 44794,
        "meta_element_set_no": 999,
        "meta_rev_at_epoch": 4125,
        "meta_bstar": 0,
        "meta_mean_motion_dot": -9.5e-07,
        "meta_mean_motion_ddot": 0,
        "tle_line1": "1 44794U 19078B   25350.65550611 -.00000095  00000+0  00000+0 0  9990",
        "tle_line2": "2 44794  54.0780 306.2132 0004116  11.9420 348.0544  1.86227668 41256"
      },
      "geometry": {
        "type": "Point",
        "coordinates": [
          129.38991086117971,
          -4.550942855937594
        ]
      }
    },
    {
      "type": "Feature",
      "properties": {
        "norad_id": 44864,
        "name": "BEIDOU-3 M19 (C41)",
        "group": "beidou",
        "lat": 17.824057716882788,
        "lon": 81.07333632473784,
        "alt_km": 21531.65396420448,
        "timestamp": "2025-12-19T14:48:36.513025+00:00",
        "meta_object_name": "BEIDOU-3 M19 (C41)",
        "meta_object_id": "2019-090A",
        "meta_epoch": "2025-12-19T01:07:39.122112",
        "meta_mean_motion": 1.86231633,
        "meta_eccentricity": 0.00181901,
        "meta_inclination": 56.3984,
        "meta_ra_of_asc_node": 68.7523,
        "meta_arg_of_pericenter": 285.0515,
        "meta_mean_anomaly": 74.1026,
        "meta_ephemeris_type": 0,
        "meta_classification_type": "U",
        "meta_norad_cat_id": 44864,
        "meta_element_set_no": 999,
        "meta_rev_at_epoch": 4087,
        "meta_bstar": 0,
        "meta_mean_motion_dot": -5.7e-07,
        "meta_mean_motion_ddot": 0,
        "tle_line1": "1 44864U 19090A   25353.04698058 -.00000057  00000+0  00000+0 0  9994",
        "tle_line2": "2 44864  56.3984  68.7523 0018190 285.0515  74.1026  1.86231633 40871"
      },
      "geometry": {
        "type": "Point",
        "coordinates": [
          81.07333632473784,
          17.824057716882788
        ]
      }
    },
    {
      "type": "Feature",
      "properties": {
        "norad_id": 44865,
        "name": "BEIDOU-3 M20 (C42)",
        "group": "beidou",
        "lat": 51.055051120441384,
        "lon": -166.43330368053935,
        "alt_km": 21564.68546644994,
        "timestamp": "2025-12-19T14:48:36.513036+00:00",
        "meta_object_name": "BEIDOU-3 M20 (C42)",
        "meta_object_id": "2019-090B",
        "meta_epoch": "2025-12-18T13:12:22.451040",
        "meta_mean_motion": 1.86231689,
        "meta_eccentricity": 0.00154108,
        "meta_inclination": 56.3994,
        "meta_ra_of_asc_node": 68.8029,
        "meta_arg_of_pericenter": 297.0214,
        "meta_mean_anomaly": 178.7198,
        "meta_ephemeris_type": 0,
        "meta_classification_type": "U",
        "meta_norad_cat_id": 44865,
        "meta_element_set_no": 999,
        "meta_rev_at_epoch": 4085,
        "meta_bstar": 0,
        "meta_mean_motion_dot": -6.2e-07,
        "meta_mean_motion_ddot": 0,
        "tle_line1": "1 44865U 19090B   25352.55025985 -.00000062  00000+0  00000+0 0  9999",
        "tle_line2": "2 44865  56.3994  68.8029 0015410 297.0214 178.7198  1.86231689 40856"
      },
      "geometry": {
        "type": "Point",
        "coordinates": [
          -166.43330368053935,
          51.055051120441384
        ]
      }
    },
    {
      "type": "Feature",
      "properties": {
        "norad_id": 45344,
        "name": "BEIDOU-3 G2 (C60)",
        "group": "beidou",
        "lat": -0.563967595196215,
        "lon": 30.66578600284171,
        "alt_km": 35789.27838065615,
        "timestamp": "2025-12-19T14:48:36.513047+00:00",
        "meta_object_name": "BEIDOU-3 G2 (C60)",
        "meta_object_id": "2020-017A",
        "meta_epoch": "2025-12-19T03:22:23.615040",
        "meta_mean_motion": 1.00273184,
        "meta_eccentricity": 0.00020709,
        "meta_inclination": 2.509,
        "meta_ra_of_asc_node": 43.9944,
        "meta_arg_of_pericenter": 233.2652,
        "meta_mean_anomaly": 301.3554,
        "meta_ephemeris_type": 0,
        "meta_classification_type": "U",
        "meta_norad_cat_id": 45344,
        "meta_element_set_no": 999,
        "meta_rev_at_epoch": 2145,
        "meta_bstar": 0,
        "meta_mean_motion_dot": -1.18e-06,
        "meta_mean_motion_ddot": 0,
        "tle_line1": "1 45344U 20017A   25353.14055110 -.00000118  00000+0  00000+0 0  9994",
        "tle_line2": "2 45344   2.5090  43.9944 0002070 233.2652 301.3554  1.00273184 21452"
      },
      "geometry": {
        "type": "Point",
        "coordinates": [
          30.66578600284171,
          -0.563967595196215
        ]
      }
    },
    {
      "type": "Feature",
      "properties": {
        "norad_id": 45807,
        "name": "BEIDOU-3 G3 (C61)",
        "group": "beidou",
        "lat": -0.16407422079552136,
        "lon": 61.240579711457315,
        "alt_km": 35767.248905847155,
        "timestamp": "2025-12-19T14:48:36.513059+00:00",
        "meta_object_name": "BEIDOU-3 G3 (C61)",
        "meta_object_id": "2020-040A",
        "meta_epoch": "2025-12-19T01:48:17.629920",
        "meta_mean_motion": 1.00271158,
        "meta_eccentricity": 0.00064358,
        "meta_inclination": 2.006,
        "meta_ra_of_asc_node": 66.6361,
        "meta_arg_of_pericenter": 309.3807,
        "meta_mean_anomaly": 209.5662,
        "meta_ephemeris_type": 0,
        "meta_classification_type": "U",
        "meta_norad_cat_id": 45807,
        "meta_element_set_no": 999,
        "meta_rev_at_epoch": 2026,
        "meta_bstar": 0,
        "meta_mean_motion_dot": -3.31e-06,
        "meta_mean_motion_ddot": 0,
        "tle_line1": "1 45807U 20040A   25353.07520405 -.00000331  00000+0  00000+0 0  9997",
        "tle_line2": "2 45807   2.0060  66.6361 0006435 309.3807 209.5662  1.00271158 20265"
      },
      "geometry": {
        "type": "Point",
        "coordinates": [
          61.240579711457315,
          -0.16407422079552136
        ]
      }
    }
  ]
}